{
 "generated_at": "2026-07-07T08:23:21Z",
 "sources": [
  {
   "name": "CelesTrak",
   "url": "https://celestrak.org/NORAD/elements/",
   "license": "frei verfügbar; Attribution. Ursprünglich USSPACECOM/Space-Track."
  },
  {
   "name": "GCAT (J. McDowell, planet4589.org)",
   "url": "https://planet4589.org/space/gcat/",
   "license": "CC-BY 4.0"
  }
 ],
 "satellites": [
  {
   "norad": 54743,
   "name": "METEOSAT-12 (MTG-I1)",
   "intl": "2022-170C",
   "group": "weather",
   "gcat": {
    "class": "C",
    "category": "MET",
    "owner": "EUMET",
    "state": "I-EUM"
   },
   "omm": {
    "OBJECT_NAME": "METEOSAT-12 (MTG-I1)",
    "OBJECT_ID": "2022-170C",
    "EPOCH": "2026-07-06T13:47:36.760128",
    "MEAN_MOTION": 1.00276487,
    "ECCENTRICITY": 0.0003406,
    "INCLINATION": 0.7593,
    "RA_OF_ASC_NODE": 25.862,
    "ARG_OF_PERICENTER": 76.6678,
    "MEAN_ANOMALY": 28.7511,
    "EPHEMERIS_TYPE": 0,
    "CLASSIFICATION_TYPE": "U",
    "NORAD_CAT_ID": 54743,
    "ELEMENT_SET_NO": 999,
    "REV_AT_EPOCH": 1317,
    "BSTAR": 0,
    "MEAN_MOTION_DOT": 9e-8,
    "MEAN_MOTION_DDOT": 0
   }
  },
  {
   "norad": 28912,
   "name": "METEOSAT-9 (MSG-2)",
   "intl": "2005-049B",
   "group": "weather",
   "gcat": {
    "class": "C",
    "category": "MET",
    "owner": "EUMET",
    "state": "I-EUM"
   },
   "omm": {
    "OBJECT_NAME": "METEOSAT-9 (MSG-2)",
    "OBJECT_ID": "2005-049B",
    "EPOCH": "2026-07-06T17:15:17.075232",
    "MEAN_MOTION": 1.00268686,
    "ECCENTRICITY": 0.0002205,
    "INCLINATION": 9.4026,
    "RA_OF_ASC_NODE": 53.9709,
    "ARG_OF_PERICENTER": 0.5129,
    "MEAN_ANOMALY": 174.7441,
    "EPHEMERIS_TYPE": 0,
    "CLASSIFICATION_TYPE": "U",
    "NORAD_CAT_ID": 28912,
    "ELEMENT_SET_NO": 999,
    "REV_AT_EPOCH": 719,
    "BSTAR": 0,
    "MEAN_MOTION_DOT": 0.00000134,
    "MEAN_MOTION_DDOT": 0
   }
  },
  {
   "norad": 38771,
   "name": "METOP-B",
   "intl": "2012-049A",
   "group": "weather",
   "gcat": {
    "class": "C",
    "category": "MET",
    "owner": "EUMET",
    "state": "I-EUM"
   },
   "omm": {
    "OBJECT_NAME": "METOP-B",
    "OBJECT_ID": "2012-049A",
    "EPOCH": "2026-07-06T19:53:18.695040",
    "MEAN_MOTION": 14.21444742,
    "ECCENTRICITY": 0.0001137,
    "INCLINATION": 98.6493,
    "RA_OF_ASC_NODE": 238.9351,
    "ARG_OF_PERICENTER": 306.5411,
    "MEAN_ANOMALY": 53.5662,
    "EPHEMERIS_TYPE": 0,
    "CLASSIFICATION_TYPE": "U",
    "NORAD_CAT_ID": 38771,
    "ELEMENT_SET_NO": 999,
    "REV_AT_EPOCH": 71605,
    "BSTAR": 0.000053716,
    "MEAN_MOTION_DOT": 7.4e-7,
    "MEAN_MOTION_DDOT": 0
   }
  },
  {
   "norad": 43689,
   "name": "METOP-C",
   "intl": "2018-087A",
   "group": "weather",
   "gcat": {
    "class": "C",
    "category": "MET",
    "owner": "EUMET",
    "state": "I-EUM"
   },
   "omm": {
    "OBJECT_NAME": "METOP-C",
    "OBJECT_ID": "2018-087A",
    "EPOCH": "2026-07-06T20:19:29.661312",
    "MEAN_MOTION": 14.21517434,
    "ECCENTRICITY": 0.0002189,
    "INCLINATION": 98.6634,
    "RA_OF_ASC_NODE": 247.0902,
    "ARG_OF_PERICENTER": 104.5597,
    "MEAN_ANOMALY": 255.5823,
    "EPHEMERIS_TYPE": 0,
    "CLASSIFICATION_TYPE": "U",
    "NORAD_CAT_ID": 43689,
    "ELEMENT_SET_NO": 999,
    "REV_AT_EPOCH": 39762,
    "BSTAR": 0.000051833,
    "MEAN_MOTION_DOT": 7e-7,
    "MEAN_MOTION_DDOT": 0
   }
  },
  {
   "norad": 65159,
   "name": "METOP-SGA1",
   "intl": "2025-172A",
   "group": "weather",
   "gcat": {
    "class": "C",
    "category": "MET",
    "owner": "EUMET",
    "state": "I-EUM"
   },
   "omm": {
    "OBJECT_NAME": "METOP-SGA1",
    "OBJECT_ID": "2025-172A",
    "EPOCH": "2026-07-06T17:32:13.242048",
    "MEAN_MOTION": 14.19818253,
    "ECCENTRICITY": 0.0007536,
    "INCLINATION": 98.6634,
    "RA_OF_ASC_NODE": 247.0451,
    "ARG_OF_PERICENTER": 357.6286,
    "MEAN_ANOMALY": 2.4853,
    "EPHEMERIS_TYPE": 0,
    "CLASSIFICATION_TYPE": "U",
    "NORAD_CAT_ID": 65159,
    "ELEMENT_SET_NO": 999,
    "REV_AT_EPOCH": 4656,
    "BSTAR": 0.000030682,
    "MEAN_MOTION_DOT": 2.2e-7,
    "MEAN_MOTION_DDOT": 0
   }
  },
  {
   "norad": 64899,
   "name": "MICROCARB",
   "intl": "2025-156A",
   "group": "resource",
   "gcat": {
    "class": "C",
    "category": "SCI",
    "owner": "CNES",
    "state": "F"
   },
   "omm": {
    "OBJECT_NAME": "MICROCARB",
    "OBJECT_ID": "2025-156A",
    "EPOCH": "2026-07-06T17:15:12.076128",
    "MEAN_MOTION": 14.72878561,
    "ECCENTRICITY": 0.0016954,
    "INCLINATION": 98.0076,
    "RA_OF_ASC_NODE": 264.5399,
    "ARG_OF_PERICENTER": 197.8968,
    "MEAN_ANOMALY": 162.1644,
    "EPHEMERIS_TYPE": 0,
    "CLASSIFICATION_TYPE": "U",
    "NORAD_CAT_ID": 64899,
    "ELEMENT_SET_NO": 999,
    "REV_AT_EPOCH": 5084,
    "BSTAR": 0.000087275,
    "MEAN_MOTION_DOT": 0.0000051,
    "MEAN_MOTION_DDOT": 0
   }
  },
  {
   "norad": 64723,
   "name": "MTG-S1",
   "intl": "2025-143A",
   "group": "weather",
   "gcat": {
    "class": "C",
    "category": "MET",
    "owner": "EUMET",
    "state": "I-EUM"
   },
   "omm": {
    "OBJECT_NAME": "MTG-S1",
    "OBJECT_ID": "2025-143A",
    "EPOCH": "2026-07-06T17:12:49.313088",
    "MEAN_MOTION": 1.00272491,
    "ECCENTRICITY": 0.000322,
    "INCLINATION": 0.5893,
    "RA_OF_ASC_NODE": 343.044,
    "ARG_OF_PERICENTER": 262.3052,
    "MEAN_ANOMALY": 297.103,
    "EPHEMERIS_TYPE": 0,
    "CLASSIFICATION_TYPE": "U",
    "NORAD_CAT_ID": 64723,
    "ELEMENT_SET_NO": 999,
    "REV_AT_EPOCH": 361,
    "BSTAR": 0,
    "MEAN_MOTION_DOT": 7e-8,
    "MEAN_MOTION_DDOT": 0
   }
  },
  {
   "norad": 46277,
   "name": "NEMO-HD",
   "intl": "2020-061F",
   "group": "resource",
   "gcat": {
    "class": "A",
    "category": "IMG",
    "owner": "SPSI",
    "state": "SI"
   },
   "omm": {
    "OBJECT_NAME": "NEMO-HD",
    "OBJECT_ID": "2020-061F",
    "EPOCH": "2026-07-06T19:43:19.094592",
    "MEAN_MOTION": 15.45013626,
    "ECCENTRICITY": 0.000124,
    "INCLINATION": 97.1905,
    "RA_OF_ASC_NODE": 249.5802,
    "ARG_OF_PERICENTER": 77.197,
    "MEAN_ANOMALY": 282.9418,
    "EPHEMERIS_TYPE": 0,
    "CLASSIFICATION_TYPE": "U",
    "NORAD_CAT_ID": 46277,
    "ELEMENT_SET_NO": 999,
    "REV_AT_EPOCH": 32501,
    "BSTAR": 0.00018612,
    "MEAN_MOTION_DOT": 0.00008692,
    "MEAN_MOTION_DDOT": 0
   }
  },
  {
   "norad": 65053,
   "name": "NISAR",
   "intl": "2025-163A",
   "group": "sar",
   "gcat": {
    "class": "C",
    "category": "IMG-R",
    "owner": "ISRO/JPL",
    "state": "IN"
   },
   "omm": {
    "OBJECT_NAME": "NISAR",
    "OBJECT_ID": "2025-163A",
    "EPOCH": "2026-07-06T19:04:54.218208",
    "MEAN_MOTION": 14.42503764,
    "ECCENTRICITY": 0.0001228,
    "INCLINATION": 98.4057,
    "RA_OF_ASC_NODE": 15.1737,
    "ARG_OF_PERICENTER": 89.0997,
    "MEAN_ANOMALY": 271.0333,
    "EPHEMERIS_TYPE": 0,
    "CLASSIFICATION_TYPE": "U",
    "NORAD_CAT_ID": 65053,
    "ELEMENT_SET_NO": 999,
    "REV_AT_EPOCH": 4921,
    "BSTAR": 0.000076928,
    "MEAN_MOTION_DOT": 0.00000211,
    "MEAN_MOTION_DDOT": 0
   }
  },
  {
   "norad": 43013,
   "name": "NOAA 20 (JPSS-1)",
   "intl": "2017-073A",
   "group": "weather",
   "gcat": {
    "class": "C",
    "category": "MET",
    "owner": "GSFC/NOAA",
    "state": "US"
   },
   "omm": {
    "OBJECT_NAME": "NOAA 20 (JPSS-1)",
    "OBJECT_ID": "2017-073A",
    "EPOCH": "2026-07-06T19:23:29.764896",
    "MEAN_MOTION": 14.19515363,
    "ECCENTRICITY": 0.0001063,
    "INCLINATION": 98.7772,
    "RA_OF_ASC_NODE": 127.0965,
    "ARG_OF_PERICENTER": 131.0495,
    "MEAN_ANOMALY": 229.0773,
    "EPHEMERIS_TYPE": 0,
    "CLASSIFICATION_TYPE": "U",
    "NORAD_CAT_ID": 43013,
    "ELEMENT_SET_NO": 999,
    "REV_AT_EPOCH": 44725,
    "BSTAR": 0.000047659,
    "MEAN_MOTION_DOT": 5.6e-7,
    "MEAN_MOTION_DDOT": 0
   }
  }
 ]
}
